start=new Date('2021-09-20T00:00:00.000Z').valueOf();
sats=[{"RA_OF_ASC_NODE":"302.4342","SITE":"AFETR","SEMIMAJOR_AXIS":"6925.354","BSTAR":"-0.00002077500000","OBJECT_ID":"2021-027W","PERIAPSIS":"546.711","RCS_SIZE":"LARGE","TLE_LINE2":"2 48112  53.0576 302.4342 0000734  94.8193 265.2880 15.06398091 26382","OBJECT_NAME":"STARLINK-2449","DECAY_DATE":null,"MEAN_MOTION_DDOT":"0.0000000000000","GP_ID":"185057664","MEAN_ANOMALY":"265.2880","OBJECT_TYPE":"PAYLOAD","NORAD_CAT_ID":"48112","TLE_LINE1":"1 48112U 21027W   21262.80321706 -.00000591  00000-0 -20775-4 0  9990","COUNTRY_CODE":"US","REV_AT_EPOCH":"2638","EPHEMERIS_TYPE":"0","CLASSIFICATION_TYPE":"U","TIME_SYSTEM":"UTC","EPOCH":"2021-09-19T19:16:37.953984","PERIOD":"95.592","MEAN_MOTION_DOT":"-0.00000591","REF_FRAME":"TEME","APOAPSIS":"547.728","LAUNCH_DATE":"2021-04-07","FILE":"3120378","ARG_OF_PERICENTER":"94.8193","CENTER_NAME":"EARTH","ELEMENT_SET_NO":"999","MEAN_MOTION":"15.06398091","ECCENTRICITY":"0.00007340","MEAN_ELEMENT_THEORY":"SGP4","INCLINATION":"53.0576"},{"REV_AT_EPOCH":"2644","EPHEMERIS_TYPE":"0","CLASSIFICATION_TYPE":"U","TLE_LINE1":"1 48113U 21027X   21262.82120026  .00001200  00000-0  99427-4 0  9991","COUNTRY_CODE":"US","MEAN_MOTION_DDOT":"0.0000000000000","GP_ID":"185057417","DECAY_DATE":null,"MEAN_ANOMALY":"274.5098","NORAD_CAT_ID":"48113","OBJECT_TYPE":"PAYLOAD","SITE":"AFETR","SEMIMAJOR_AXIS":"6925.332","BSTAR":"0.00009942700000","RA_OF_ASC_NODE":"297.3533","TLE_LINE2":"2 48113  53.0554 297.3533 0000328  85.5928 274.5098 15.06405550 26445","RCS_SIZE":"LARGE","PERIAPSIS":"546.969","OBJECT_ID":"2021-027X","OBJECT_NAME":"STARLINK-2450","MEAN_MOTION":"15.06405550","ECCENTRICITY":"0.00003280","INCLINATION":"53.0554","MEAN_ELEMENT_THEORY":"SGP4","CENTER_NAME":"EARTH","ARG_OF_PERICENTER":"85.5928","ELEMENT_SET_NO":"999","REF_FRAME":"TEME","MEAN_MOTION_DOT":"0.00001200","APOAPSIS":"547.424","LAUNCH_DATE":"2021-04-07","FILE":"3120378","TIME_SYSTEM":"UTC","PERIOD":"95.592","EPOCH":"2021-09-19T19:42:31.702464"},{"CLASSIFICATION_TYPE":"U","REV_AT_EPOCH":"2652","EPHEMERIS_TYPE":"0","COUNTRY_CODE":"US","TLE_LINE1":"1 48114U 21027Y   21262.78203543  .00000518  00000-0  53612-4 0  9990","OBJECT_TYPE":"PAYLOAD","NORAD_CAT_ID":"48114","DECAY_DATE":null,"GP_ID":"185056668","MEAN_MOTION_DDOT":"0.0000000000000","MEAN_ANOMALY":"275.3603","OBJECT_NAME":"STARLINK-2451","RA_OF_ASC_NODE":"292.5312","SITE":"AFETR","SEMIMAJOR_AXIS":"6925.363","BSTAR":"0.00005361200000","PERIAPSIS":"547.025","OBJECT_ID":"2021-027Y","TLE_LINE2":"2 48114  53.0561 292.5312 0000293  84.7419 275.3603 15.06395448 26527","RCS_SIZE":"LARGE","ECCENTRICITY":"0.00002930","MEAN_ELEMENT_THEORY":"SGP4","INCLINATION":"53.0561","MEAN_MOTION":"15.06395448","ELEMENT_SET_NO":"999","CENTER_NAME":"EARTH","ARG_OF_PERICENTER":"84.7419","LAUNCH_DATE":"2021-04-07","FILE":"3120378","MEAN_MOTION_DOT":"0.00000518","REF_FRAME":"TEME","APOAPSIS":"547.430","TIME_SYSTEM":"UTC","EPOCH":"2021-09-19T18:46:07.861152","PERIOD":"95.592"},{"MEAN_MOTION":"15.06394413","ECCENTRICITY":"0.00004220","MEAN_ELEMENT_THEORY":"SGP4","INCLINATION":"53.0532","ARG_OF_PERICENTER":"87.1675","CENTER_NAME":"EARTH","ELEMENT_SET_NO":"999","MEAN_MOTION_DOT":"0.00000480","REF_FRAME":"TEME","APOAPSIS":"547.523","LAUNCH_DATE":"2021-04-07","FILE":"3120378","TIME_SYSTEM":"UTC","EPOCH":"2021-09-19T19:26:36.440736","PERIOD":"95.592","REV_AT_EPOCH":"2659","EPHEMERIS_TYPE":"0","CLASSIFICATION_TYPE":"U","TLE_LINE1":"1 48115U 21027Z   21262.81014399  .00000480  00000-0  51080-4 0  9999","COUNTRY_CODE":"US","DECAY_DATE":null,"MEAN_MOTION_DDOT":"0.0000000000000","GP_ID":"185056915","MEAN_ANOMALY":"272.9362","OBJECT_TYPE":"PAYLOAD","NORAD_CAT_ID":"48115","SEMIMAJOR_AXIS":"6925.366","SITE":"AFETR","BSTAR":"0.00005108000000","RA_OF_ASC_NODE":"287.4063","OBJECT_ID":"2021-027Z","PERIAPSIS":"546.938","RCS_SIZE":"LARGE","TLE_LINE2":"2 48115  53.0532 287.4063 0000422  87.1675 272.9362 15.06394413 26590","OBJECT_NAME":"STARLINK-2452"},{"FILE":"3120378","LAUNCH_DATE":"2021-04-07","APOAPSIS":"547.615","MEAN_MOTION_DOT":"-0.00000856","REF_FRAME":"TEME","EPOCH":"2021-09-19T19:37:14.619648","PERIOD":"95.593","TIME_SYSTEM":"UTC","MEAN_ELEMENT_THEORY":"SGP4","INCLINATION":"53.0568","ECCENTRICITY":"0.00005520","MEAN_MOTION":"15.06393832","ELEMENT_SET_NO":"999","CENTER_NAME":"EARTH","ARG_OF_PERICENTER":"107.6936","OBJECT_TYPE":"PAYLOAD","NORAD_CAT_ID":"48116","MEAN_ANOMALY":"252.4113","DECAY_DATE":null,"GP_ID":"185057165","MEAN_MOTION_DDOT":"0.0000000000000","OBJECT_NAME":"STARLINK-2454","OBJECT_ID":"2021-027AA","PERIAPSIS":"546.850","TLE_LINE2":"2 48116  53.0568 297.3761 0000552 107.6936 252.4113 15.06393832 26453","RCS_SIZE":"LARGE","SEMIMAJOR_AXIS":"6925.367","SITE":"AFETR","RA_OF_ASC_NODE":"297.3761","BSTAR":"-0.00003858200000","CLASSIFICATION_TYPE":"U","EPHEMERIS_TYPE":"0","REV_AT_EPOCH":"2645","COUNTRY_CODE":"US","TLE_LINE1":"1 48116U 21027AA  21262.81753032 -.00000856  00000-0 -38582-4 0  9995"},{"OBJECT_NAME":"STARLINK-2455","TLE_LINE2":"2 48117  53.0547 278.6819 0000375  89.6811 270.4221 15.06404629 26694","RCS_SIZE":"LARGE","PERIAPSIS":"546.940","OBJECT_ID":"2021-027AB","SITE":"AFETR","RA_OF_ASC_NODE":"278.6819","SEMIMAJOR_AXIS":"6925.334","BSTAR":"0.00007282300000","OBJECT_TYPE":"PAYLOAD","NORAD_CAT_ID":"48117","MEAN_ANOMALY":"270.4221","MEAN_MOTION_DDOT":"0.0000000000000","GP_ID":"185024873","DECAY_DATE":null,"COUNTRY_CODE":"US","TLE_LINE1":"1 48117U 21027AB  21262.52449174  .00000804  00000-0  72823-4 0  9990","CLASSIFICATION_TYPE":"U","EPHEMERIS_TYPE":"0","REV_AT_EPOCH":"2669","PERIOD":"95.592","EPOCH":"2021-09-19T12:35:16.086336","TIME_SYSTEM":"UTC","FILE":"3120015","LAUNCH_DATE":"2021-04-07","APOAPSIS":"547.459","REF_FRAME":"TEME","MEAN_MOTION_DOT":"0.00000804","ELEMENT_SET_NO":"999","ARG_OF_PERICENTER":"89.6811","CENTER_NAME":"EARTH","INCLINATION":"53.0547","MEAN_ELEMENT_THEORY":"SGP4","ECCENTRICITY":"0.00003750","MEAN_MOTION":"15.06404629"},{"MEAN_MOTION":"15.06400507","ECCENTRICITY":"0.00005910","MEAN_ELEMENT_THEORY":"SGP4","INCLINATION":"53.0545","CENTER_NAME":"EARTH","ARG_OF_PERICENTER":"77.6039","ELEMENT_SET_NO":"999","MEAN_MOTION_DOT":"0.00000599","REF_FRAME":"TEME","APOAPSIS":"547.621","LAUNCH_DATE":"2021-04-07","FILE":"3120378","TIME_SYSTEM":"UTC","EPOCH":"2021-09-19T17:37:49.243008","PERIOD":"95.592","REV_AT_EPOCH":"2672","EPHEMERIS_TYPE":"0","CLASSIFICATION_TYPE":"U","TLE_LINE1":"1 48118U 21027AC  21262.73459772  .00000599  00000-0  59111-4 0  9995","COUNTRY_CODE":"US","DECAY_DATE":null,"MEAN_MOTION_DDOT":"0.0000000000000","GP_ID":"185056169","MEAN_ANOMALY":"282.5016","NORAD_CAT_ID":"48118","OBJECT_TYPE":"PAYLOAD","SITE":"AFETR","SEMIMAJOR_AXIS":"6925.347","RA_OF_ASC_NODE":"277.7377","BSTAR":"0.00005911100000","OBJECT_ID":"2021-027AC","PERIAPSIS":"546.803","TLE_LINE2":"2 48118  53.0545 277.7377 0000591  77.6039 282.5016 15.06400507 26722","RCS_SIZE":"LARGE","OBJECT_NAME":"STARLINK-2458"},{"NORAD_CAT_ID":"48119","OBJECT_TYPE":"PAYLOAD","MEAN_ANOMALY":"301.8637","GP_ID":"185025875","MEAN_MOTION_DDOT":"0.0000000000000","DECAY_DATE":null,"OBJECT_NAME":"STARLINK-2459","RCS_SIZE":"LARGE","TLE_LINE2":"2 48119  53.0544 278.9445 0000350  58.2386 301.8637 15.06402322 26679","OBJECT_ID":"2021-027AD","PERIAPSIS":"546.964","SEMIMAJOR_AXIS":"6925.341","SITE":"AFETR","RA_OF_ASC_NODE":"278.9445","BSTAR":"0.00008397100000","CLASSIFICATION_TYPE":"U","EPHEMERIS_TYPE":"0","REV_AT_EPOCH":"2667","COUNTRY_CODE":"US","TLE_LINE1":"1 48119U 21027AD  21262.46551939  .00000970  00000-0  83971-4 0  9998","FILE":"3120015","LAUNCH_DATE":"2021-04-07","APOAPSIS":"547.449","REF_FRAME":"TEME","MEAN_MOTION_DOT":"0.00000970","PERIOD":"95.592","EPOCH":"2021-09-19T11:10:20.875296","TIME_SYSTEM":"UTC","INCLINATION":"53.0544","MEAN_ELEMENT_THEORY":"SGP4","ECCENTRICITY":"0.00003500","MEAN_MOTION":"15.06402322","ELEMENT_SET_NO":"999","CENTER_NAME":"EARTH","ARG_OF_PERICENTER":"58.2386"},{"ELEMENT_SET_NO":"999","ARG_OF_PERICENTER":"75.2447","CENTER_NAME":"EARTH","ECCENTRICITY":"0.00007070","MEAN_ELEMENT_THEORY":"SGP4","INCLINATION":"53.0548","MEAN_MOTION":"15.06402372","TIME_SYSTEM":"UTC","EPOCH":"2021-09-19T19:16:00.809760","PERIOD":"95.592","LAUNCH_DATE":"2021-04-07","FILE":"3120378","MEAN_MOTION_DOT":"0.00001808","REF_FRAME":"TEME","APOAPSIS":"547.696","COUNTRY_CODE":"US","TLE_LINE1":"1 48120U 21027AE  21262.80278715  .00001808  00000-0  14024-3 0  9999","CLASSIFICATION_TYPE":"U","REV_AT_EPOCH":"2646","EPHEMERIS_TYPE":"0","OBJECT_NAME":"STARLINK-2460","SITE":"AFETR","BSTAR":"0.00014024000000","SEMIMAJOR_AXIS":"6925.341","RA_OF_ASC_NODE":"297.4338","OBJECT_ID":"2021-027AE","PERIAPSIS":"546.717","TLE_LINE2":"2 48120  53.0548 297.4338 0000707  75.2447 284.8620 15.06402372 26469","RCS_SIZE":"LARGE","NORAD_CAT_ID":"48120","OBJECT_TYPE":"PAYLOAD","DECAY_DATE":null,"MEAN_MOTION_DDOT":"0.0000000000000","GP_ID":"185057665","MEAN_ANOMALY":"284.8620"},{"OBJECT_TYPE":"PAYLOAD","NORAD_CAT_ID":"48121","DECAY_DATE":null,"GP_ID":"185057418","MEAN_MOTION_DDOT":"0.0000000000000","MEAN_ANOMALY":"242.4235","OBJECT_NAME":"STARLINK-2462","BSTAR":"0.00006187600000","SITE":"AFETR","SEMIMAJOR_AXIS":"6925.352","RA_OF_ASC_NODE":"287.5628","PERIAPSIS":"547.148","OBJECT_ID":"2021-027AF","TLE_LINE2":"2 48121  53.0554 287.5628 0000100 117.6764 242.4235 15.06398796 26588","RCS_SIZE":"LARGE","CLASSIFICATION_TYPE":"U","REV_AT_EPOCH":"2658","EPHEMERIS_TYPE":"0","COUNTRY_CODE":"US","TLE_LINE1":"1 48121U 21027AF  21262.77421873  .00000641  00000-0  61876-4 0  9993","LAUNCH_DATE":"2021-04-07","FILE":"3120378","MEAN_MOTION_DOT":"0.00000641","REF_FRAME":"TEME","APOAPSIS":"547.287","TIME_SYSTEM":"UTC","EPOCH":"2021-09-19T18:34:52.498272","PERIOD":"95.592","ECCENTRICITY":"0.00001000","MEAN_ELEMENT_THEORY":"SGP4","INCLINATION":"53.0554","MEAN_MOTION":"15.06398796","ELEMENT_SET_NO":"999","CENTER_NAME":"EARTH","ARG_OF_PERICENTER":"117.6764"}];
